[{"OBJECT_NAME":"YINHE-1","OBJECT_ID":"2020-004A","EPOCH":"2026-03-09T22:55:05.644416","MEAN_MOTION":14.79015566,"ECCENTRICITY":0.00131658,"INCLINATION":86.3997,"RA_OF_ASC_NODE":160.1115,"ARG_OF_PERICENTER":358.9121,"MEAN_ANOMALY":1.2068,"EPHEMERIS_TYPE":0,"CLASSIFICATION_TYPE":"U","NORAD_CAT_ID":45024,"ELEMENT_SET_NO":999,"REV_AT_EPOCH":33125,"BSTAR":0.00018596346,"MEAN_MOTION_DOT":1.401e-5,"MEAN_MOTION_DDOT":0},{"OBJECT_NAME":"KAGAYAKI","OBJECT_ID":"2009-002D","EPOCH":"2026-03-09T23:28:22.402848","MEAN_MOTION":14.74713717,"ECCENTRICITY":0.00075518,"INCLINATION":98.1297,"RA_OF_ASC_NODE":334.2775,"ARG_OF_PERICENTER":357.7461,"MEAN_ANOMALY":2.3712,"EPHEMERIS_TYPE":0,"CLASSIFICATION_TYPE":"U","NORAD_CAT_ID":33495,"ELEMENT_SET_NO":999,"REV_AT_EPOCH":91959,"BSTAR":9.4636341e-5,"MEAN_MOTION_DOT":5.8e-6,"MEAN_MOTION_DDOT":0}]
